[{"OBJECT_NAME":"JILIN-1 GAOFEN 2A","OBJECT_ID":"2019-075A","EPOCH":"2026-03-09T21:52:13.646784","MEAN_MOTION":15.36418896,"ECCENTRICITY":0.00077248,"INCLINATION":97.5004,"RA_OF_ASC_NODE":150.5825,"ARG_OF_PERICENTER":84.5784,"MEAN_ANOMALY":275.6341,"EPHEMERIS_TYPE":0,"CLASSIFICATION_TYPE":"U","NORAD_CAT_ID":44777,"ELEMENT_SET_NO":999,"REV_AT_EPOCH":34962,"BSTAR":0.00053427747,"MEAN_MOTION_DOT":0.00018939,"MEAN_MOTION_DDOT":0},{"OBJECT_NAME":"COSMOS 660","OBJECT_ID":"1974-044A","EPOCH":"2026-03-09T22:24:08.129952","MEAN_MOTION":14.66679771,"ECCENTRICITY":0.04337529,"INCLINATION":82.9408,"RA_OF_ASC_NODE":355.0742,"ARG_OF_PERICENTER":327.8768,"MEAN_ANOMALY":29.6656,"EPHEMERIS_TYPE":0,"CLASSIFICATION_TYPE":"U","NORAD_CAT_ID":7337,"ELEMENT_SET_NO":999,"REV_AT_EPOCH":62706,"BSTAR":0.0004937415,"MEAN_MOTION_DOT":0.0001202,"MEAN_MOTION_DDOT":0}]
